CCSDS_OMM_VERS = 2.0
CREATION_DATE  = 
ORIGINATOR     = 

OBJECT_NAME    = SL-14 R/B
OBJECT_ID      = 1986-046B
CENTER_NAME    = EARTH
REF_FRAME      = TEME
TIME_SYSTEM    = UTC
MEAN_ELEMENT_THEORY = SGP/SGP4

EPOCH          = 2026-03-02T03:05:31.112448
MEAN_MOTION    = 14.85581479
ECCENTRICITY   = .0021606
INCLINATION    = 82.4783
RA_OF_ASC_NODE = 87.3281
ARG_OF_PERICENTER = 251.8326
MEAN_ANOMALY   = 108.0538

EPHEMERIS_TYPE = 0
CLASSIFICATION_TYPE = U
NORAD_CAT_ID   = 16792
ELEMENT_SET_NO = 999
REV_AT_EPOCH   = 12528
BSTAR          = .57293E-4
MEAN_MOTION_DOT = .521E-5
MEAN_MOTION_DDOT = 0

CCSDS_OMM_VERS = 2.0
CREATION_DATE  = 
ORIGINATOR     = 

OBJECT_NAME    = SL-14 R/B
OBJECT_ID      = 1986-055B
CENTER_NAME    = EARTH
REF_FRAME      = TEME
TIME_SYSTEM    = UTC
MEAN_ELEMENT_THEORY = SGP/SGP4

EPOCH          = 2026-03-02T04:28:06.212928
MEAN_MOTION    = 14.85634289
ECCENTRICITY   = .0018841
INCLINATION    = 82.5215
RA_OF_ASC_NODE = 133.7263
ARG_OF_PERICENTER = 1.8407
MEAN_ANOMALY   = 28.2017

EPHEMERIS_TYPE = 0
CLASSIFICATION_TYPE = U
NORAD_CAT_ID   = 16882
ELEMENT_SET_NO = 999
REV_AT_EPOCH   = 11825
BSTAR          = .5529E-4
MEAN_MOTION_DOT = .504E-5
MEAN_MOTION_DDOT = 0

CCSDS_OMM_VERS = 2.0
CREATION_DATE  = 
ORIGINATOR     = 

OBJECT_NAME    = AJISAI (EGS)
OBJECT_ID      = 1986-061A
CENTER_NAME    = EARTH
REF_FRAME      = TEME
TIME_SYSTEM    = UTC
MEAN_ELEMENT_THEORY = SGP/SGP4

EPOCH          = 2026-03-02T03:50:42.139680
MEAN_MOTION    = 12.44515482
ECCENTRICITY   = .0011244
INCLINATION    = 50.0081
RA_OF_ASC_NODE = 116.5016
ARG_OF_PERICENTER = 267.6126
MEAN_ANOMALY   = 132.8896

EPHEMERIS_TYPE = 0
CLASSIFICATION_TYPE = U
NORAD_CAT_ID   = 16908
ELEMENT_SET_NO = 999
REV_AT_EPOCH   = 46706
BSTAR          = .75793E-4
MEAN_MOTION_DOT = -.87E-6
MEAN_MOTION_DDOT = 0

CCSDS_OMM_VERS = 2.0
CREATION_DATE  = 
ORIGINATOR     = 

OBJECT_NAME    = COSMOS 1812
OBJECT_ID      = 1987-003A
CENTER_NAME    = EARTH
REF_FRAME      = TEME
TIME_SYSTEM    = UTC
MEAN_ELEMENT_THEORY = SGP/SGP4

EPOCH          = 2026-03-02T00:19:21.107136
MEAN_MOTION    = 16.18918330
ECCENTRICITY   = .0006784
INCLINATION    = 82.4732
RA_OF_ASC_NODE = 204.4146
ARG_OF_PERICENTER = 288.0935
MEAN_ANOMALY   = 71.9614

EPHEMERIS_TYPE = 0
CLASSIFICATION_TYPE = U
NORAD_CAT_ID   = 17295
ELEMENT_SET_NO = 999
REV_AT_EPOCH   = 14324
BSTAR          = .80874E-3
MEAN_MOTION_DOT = .1403358E-1
MEAN_MOTION_DDOT = -.12034E-5

CCSDS_OMM_VERS = 2.0
CREATION_DATE  = 
ORIGINATOR     = 

OBJECT_NAME    = SL-14 R/B
OBJECT_ID      = 1987-024B
CENTER_NAME    = EARTH
REF_FRAME      = TEME
TIME_SYSTEM    = UTC
MEAN_ELEMENT_THEORY = SGP/SGP4

EPOCH          = 2026-03-02T03:57:35.501472
MEAN_MOTION    = 14.86123459
ECCENTRICITY   = .0016697
INCLINATION    = 82.5254
RA_OF_ASC_NODE = 99.8379
ARG_OF_PERICENTER = 287.1459
MEAN_ANOMALY   = 72.7929

EPHEMERIS_TYPE = 0
CLASSIFICATION_TYPE = U
NORAD_CAT_ID   = 17567
ELEMENT_SET_NO = 999
REV_AT_EPOCH   = 8701
BSTAR          = .53378E-4
MEAN_MOTION_DOT = .493E-5
MEAN_MOTION_DDOT = 0

CCSDS_OMM_VERS = 2.0
CREATION_DATE  = 
ORIGINATOR     = 

OBJECT_NAME    = COSMOS 1833
OBJECT_ID      = 1987-027A
CENTER_NAME    = EARTH
REF_FRAME      = TEME
TIME_SYSTEM    = UTC
MEAN_ELEMENT_THEORY = SGP/SGP4

EPOCH          = 2026-03-02T03:27:39.831264
MEAN_MOTION    = 14.13056314
ECCENTRICITY   = .0024593
INCLINATION    = 70.9232
RA_OF_ASC_NODE = 341.8760
ARG_OF_PERICENTER = 224.9514
MEAN_ANOMALY   = 134.9617

EPHEMERIS_TYPE = 0
CLASSIFICATION_TYPE = U
NORAD_CAT_ID   = 17589
ELEMENT_SET_NO = 999
REV_AT_EPOCH   = 925
BSTAR          = -.43917E-4
MEAN_MOTION_DOT = -.13E-5
MEAN_MOTION_DDOT = 0

CCSDS_OMM_VERS = 2.0
CREATION_DATE  = 
ORIGINATOR     = 

OBJECT_NAME    = SL-16 R/B
OBJECT_ID      = 1987-027B
CENTER_NAME    = EARTH
REF_FRAME      = TEME
TIME_SYSTEM    = UTC
MEAN_ELEMENT_THEORY = SGP/SGP4

EPOCH          = 2026-03-02T01:39:35.462016
MEAN_MOTION    = 14.17166757
ECCENTRICITY   = .0003784
INCLINATION    = 71.0021
RA_OF_ASC_NODE = 292.5545
ARG_OF_PERICENTER = 158.6592
MEAN_ANOMALY   = 201.4690

EPHEMERIS_TYPE = 0
CLASSIFICATION_TYPE = U
NORAD_CAT_ID   = 17590
ELEMENT_SET_NO = 999
REV_AT_EPOCH   = 1426
BSTAR          = -.64041E-4
MEAN_MOTION_DOT = -.177E-5
MEAN_MOTION_DDOT = 0

CCSDS_OMM_VERS = 2.0
CREATION_DATE  = 
ORIGINATOR     = 

OBJECT_NAME    = SL-14 R/B
OBJECT_ID      = 1987-038B
CENTER_NAME    = EARTH
REF_FRAME      = TEME
TIME_SYSTEM    = UTC
MEAN_ELEMENT_THEORY = SGP/SGP4

EPOCH          = 2026-03-02T03:44:46.482720
MEAN_MOTION    = 14.85361274
ECCENTRICITY   = .0019024
INCLINATION    = 82.5016
RA_OF_ASC_NODE = 303.9048
ARG_OF_PERICENTER = 185.0567
MEAN_ANOMALY   = 175.0461

EPHEMERIS_TYPE = 0
CLASSIFICATION_TYPE = U
NORAD_CAT_ID   = 17912
ELEMENT_SET_NO = 999
REV_AT_EPOCH   = 7811
BSTAR          = .55392E-4
MEAN_MOTION_DOT = .502E-5
MEAN_MOTION_DDOT = 0

CCSDS_OMM_VERS = 2.0
CREATION_DATE  = 
ORIGINATOR     = 

OBJECT_NAME    = COSMOS 1844
OBJECT_ID      = 1987-041A
CENTER_NAME    = EARTH
REF_FRAME      = TEME
TIME_SYSTEM    = UTC
MEAN_ELEMENT_THEORY = SGP/SGP4

EPOCH          = 2026-03-02T02:48:01.009440
MEAN_MOTION    = 14.14553215
ECCENTRICITY   = .0029605
INCLINATION    = 70.8992
RA_OF_ASC_NODE = 50.1485
ARG_OF_PERICENTER = 29.3711
MEAN_ANOMALY   = 330.9066

EPHEMERIS_TYPE = 0
CLASSIFICATION_TYPE = U
NORAD_CAT_ID   = 17973
ELEMENT_SET_NO = 999
REV_AT_EPOCH   = 251
BSTAR          = -.31274E-5
MEAN_MOTION_DOT = -.54E-6
MEAN_MOTION_DDOT = 0

CCSDS_OMM_VERS = 2.0
CREATION_DATE  = 
ORIGINATOR     = 

OBJECT_NAME    = SL-14 R/B
OBJECT_ID      = 1987-055B
CENTER_NAME    = EARTH
REF_FRAME      = TEME
TIME_SYSTEM    = UTC
MEAN_ELEMENT_THEORY = SGP/SGP4

EPOCH          = 2026-03-02T01:36:29.782368
MEAN_MOTION    = 14.85618151
ECCENTRICITY   = .0021749
INCLINATION    = 82.5027
RA_OF_ASC_NODE = 356.2133
ARG_OF_PERICENTER = 42.0932
MEAN_ANOMALY   = 318.1949

EPHEMERIS_TYPE = 0
CLASSIFICATION_TYPE = U
NORAD_CAT_ID   = 18153
ELEMENT_SET_NO = 999
REV_AT_EPOCH   = 6880
BSTAR          = .73522E-4
MEAN_MOTION_DOT = .663E-5
MEAN_MOTION_DDOT = 0

CCSDS_OMM_VERS = 2.0
CREATION_DATE  = 
ORIGINATOR     = 

OBJECT_NAME    = COSMOS 1867
OBJECT_ID      = 1987-060A
CENTER_NAME    = EARTH
REF_FRAME      = TEME
TIME_SYSTEM    = UTC
MEAN_ELEMENT_THEORY = SGP/SGP4

EPOCH          = 2026-03-02T02:32:21.514848
MEAN_MOTION    = 14.31501539
ECCENTRICITY   = .0014385
INCLINATION    = 65.0120
RA_OF_ASC_NODE = 327.9434
ARG_OF_PERICENTER = 278.1874
MEAN_ANOMALY   = 81.7579

EPHEMERIS_TYPE = 0
CLASSIFICATION_TYPE = U
NORAD_CAT_ID   = 18187
ELEMENT_SET_NO = 999
REV_AT_EPOCH   = 1885
BSTAR          = .29925E-4
MEAN_MOTION_DOT = -.21E-6
MEAN_MOTION_DDOT = 0

CCSDS_OMM_VERS = 2.0
CREATION_DATE  = 
ORIGINATOR     = 

OBJECT_NAME    = SL-14 R/B
OBJECT_ID      = 1988-001B
CENTER_NAME    = EARTH
REF_FRAME      = TEME
TIME_SYSTEM    = UTC
MEAN_ELEMENT_THEORY = SGP/SGP4

EPOCH          = 2026-03-02T03:05:56.761152
MEAN_MOTION    = 14.85516429
ECCENTRICITY   = .0016582
INCLINATION    = 82.5139
RA_OF_ASC_NODE = 202.4697
ARG_OF_PERICENTER = 262.8120
MEAN_ANOMALY   = 97.1211

EPHEMERIS_TYPE = 0
CLASSIFICATION_TYPE = U
NORAD_CAT_ID   = 18749
ELEMENT_SET_NO = 999
REV_AT_EPOCH   = 4090
BSTAR          = .75866E-4
MEAN_MOTION_DOT = .68E-5
MEAN_MOTION_DDOT = 0

