SL-14 R/B               
1 16792U 86046B   26061.12883232  .00000521  00000+0  57293-4 0  9990
2 16792  82.4783  87.3281 0021606 251.8326 108.0538 14.85581479125285
SL-14 R/B               
1 16882U 86055B   26061.18618302  .00000504  00000+0  55290-4 0  9996
2 16882  82.5215 133.7263 0018841   1.8407  28.2017 14.85634289118254
AJISAI (EGS)            
1 16908U 86061A   26061.16020995 -.00000087  00000+0  75793-4 0  9992
2 16908  50.0081 116.5016 0011244 267.6126 132.8896 12.44515482467068
COSMOS 1812             
1 17295U 87003A   26061.01343874  .01403358 -12034-5  80874-3 0  9997
2 17295  82.4732 204.4146 0006784 288.0935  71.9614 16.18918330143245
SL-14 R/B               
1 17567U 87024B   26061.16499423  .00000493  00000+0  53378-4 0  9995
2 17567  82.5254  99.8379 0016697 287.1459  72.7929 14.86123459 87019
COSMOS 1833             
1 17589U 87027A   26061.14421101 -.00000130  00000+0 -43917-4 0  9996
2 17589  70.9232 341.8760 0024593 224.9514 134.9617 14.13056314  9259
SL-16 R/B               
1 17590U 87027B   26061.06916044 -.00000177  00000+0 -64041-4 0  9996
2 17590  71.0021 292.5545 0003784 158.6592 201.4690 14.17166757 14265
SL-14 R/B               
1 17912U 87038B   26061.15609355  .00000502  00000+0  55392-4 0  9999
2 17912  82.5016 303.9048 0019024 185.0567 175.0461 14.85361274 78111
COSMOS 1844             
1 17973U 87041A   26061.11667835 -.00000054  00000+0 -31274-5 0  9991
2 17973  70.8992  50.1485 0029605  29.3711 330.9066 14.14553215  2518
SL-14 R/B               
1 18153U 87055B   26061.06701137  .00000663  00000+0  73522-4 0  9990
2 18153  82.5027 356.2133 0021749  42.0932 318.1949 14.85618151 68807
COSMOS 1867             
1 18187U 87060A   26061.10580457 -.00000021  00000+0  29925-4 0  9995
2 18187  65.0120 327.9434 0014385 278.1874  81.7579 14.31501539 18852
SL-14 R/B               
1 18749U 88001B   26061.12912918  .00000680  00000+0  75866-4 0  9993
2 18749  82.5139 202.4697 0016582 262.8120  97.1211 14.85516429 40901
